{"type":"FeatureCollection","features":[{"type":"Feature","properties":{"name":"Nepal International Border","source":"derived from 77 district boundaries"},"geometry":{"type":"Polygon","coordinates":[[[80.3171,29.3134],[80.3139,29.4854],[80.4173,29.6407],[80.4,29.7737],[80.5508,29.8499],[80.6769,29.9586],[80.8144,30.0952],[80.9313,30.2359],[81.0452,30.2099],[81.0819,30.14],[81.0943,30.0582],[81.1673,30.0122],[81.2441,30.0287],[81.2937,30.1583],[81.4167,30.3023],[81.481,30.3865],[81.6187,30.4372],[81.8169,30.3818],[81.9397,30.3476],[82.012,30.3296],[82.0738,30.3588],[82.1166,30.2928],[82.1327,30.2108],[82.1811,30.1056],[82.2881,30.0445],[82.3831,30.0253],[82.5502,29.9614],[82.6882,29.8525],[82.7644,29.7305],[83.0142,29.6635],[83.1103,29.617],[83.1908,29.6083],[83.2836,29.562],[83.2761,29.5022],[83.3609,29.4518],[83.4555,29.2912],[83.6574,29.1762],[83.8328,29.2996],[84.0054,29.2956],[84.1181,29.2793],[84.183,29.1275],[84.2609,28.8969],[84.432,28.8021],[84.6931,28.6748],[84.8601,28.5754],[84.9627,28.5859],[85.0537,28.6749],[85.1857,28.6338],[85.1631,28.5179],[85.3629,28.2856],[85.7371,28.3151],[86.124,27.9299],[86.2122,28.1236],[86.3624,27.9413],[86.5404,28.0511],[86.7636,28.0756],[86.8477,28.0228],[87.0627,27.9248],[87.334,27.8284],[87.6141,27.8126],[87.797,27.9057],[87.9651,27.8945],[88.0904,27.8757],[88.1849,27.8243],[88.1541,27.7162],[88.0579,27.5189],[88.0545,27.3257],[87.9987,27.1337],[88.1091,26.993],[88.1553,26.8855],[88.1811,26.7185],[88.1127,26.572],[88.0947,26.5048],[88.0945,26.465],[88.069,26.4079],[88.034,26.3883],[88.0005,26.3663],[87.791,26.4665],[87.777,26.4371],[87.7136,26.4235],[87.2241,26.4081],[86.8925,26.469],[86.7239,26.4282],[86.5546,26.5162],[86.2526,26.6154],[86.144,26.607],[85.9538,26.6403],[85.8538,26.5845],[85.7361,26.6632],[85.7345,26.7926],[85.4557,26.783],[85.2184,26.759],[85.0278,26.8628],[84.9766,26.9402],[84.8501,26.9985],[84.7518,27.0052],[84.6554,27.0844],[84.6809,27.1691],[84.5395,27.3503],[84.3142,27.3845],[84.1925,27.4711],[84.091,27.4869],[83.9703,27.4441],[83.5545,27.4723],[83.3016,27.3339],[82.8015,27.4967],[82.7484,27.5702],[82.6995,27.7219],[82.1572,27.8648],[81.5731,28.0328],[81.1097,28.3784],[80.5935,28.6516],[80.4366,28.6359],[80.1872,28.7729],[80.2718,29.1421],[80.3171,29.3134]]]}}]}